{
    "CCSDS_OMM_VERS": "3.0",
    "COMMENT": "GENERATED VIA SPACE-TRACK.ORG API",
    "CREATION_DATE": "2025-11-23T22:56:29",
    "ORIGINATOR": "18 SPCS",
    "OBJECT_NAME": "COSMOS 2516 (GLONASS)",
    "OBJECT_ID": "2016-032A",
    "CENTER_NAME": "EARTH",
    "REF_FRAME": "TEME",
    "TIME_SYSTEM": "UTC",
    "MEAN_ELEMENT_THEORY": "SGP4",
    "EPOCH": "2025-11-23T08:57:40.190112",
    "MEAN_MOTION": "2.13106346",
    "ECCENTRICITY": "0.00150040",
    "INCLINATION": "63.8356",
    "RA_OF_ASC_NODE": "198.1246",
    "ARG_OF_PERICENTER": "194.4973",
    "MEAN_ANOMALY": "165.5562",
    "EPHEMERIS_TYPE": "0",
    "CLASSIFICATION_TYPE": "U",
    "NORAD_CAT_ID": "41554",
    "ELEMENT_SET_NO": "999",
    "REV_AT_EPOCH": "7384",
    "BSTAR": "0.00000000000000",
    "MEAN_MOTION_DOT": "0.00000062",
    "MEAN_MOTION_DDOT": "0.0000000000000",
    "SEMIMAJOR_AXIS": "25507.678",
    "PERIOD": "675.719",
    "APOAPSIS": "19167.814",
    "PERIAPSIS": "19091.271",
    "OBJECT_TYPE": "PAYLOAD",
    "RCS_SIZE": "LARGE",
    "COUNTRY_CODE": "CIS",
    "LAUNCH_DATE": "2016-05-29",
    "SITE": "PKMTR",
    "DECAY_DATE": null,
    "FILE": "4896302",
    "GP_ID": "303351136",
    "TLE_LINE0": "0 COSMOS 2516 (GLONASS)",
    "TLE_LINE1": "1 41554U 16032A   25327.37338183  .00000062  00000-0  00000+0 0  9993",
    "TLE_LINE2": "2 41554  63.8356 198.1246 0015004 194.4973 165.5562  2.13106346 73848"
}